ONEWEB-0721             
1 56725U 23068R   25249.26418205  .00000037  00000+0  53568-4 0  9994
2 56725  86.6874 176.0229 0001896  74.6717 285.4626 13.22443799120414
ONEWEB-0015             
1 61594U 24188A   25249.25658214 -.00000308  00000+0 -90425-3 0  9998
2 61594  87.8780  77.6729 0002320  85.7614 274.3779 13.11418679 47248
ONEWEB-0687             
1 61595U 24188B   25249.22950011  .00000104  00000+0  23412-3 0  9990
2 61595  87.9029  62.3993 0002208 102.1469 257.9910 13.17650670 48506
ONEWEB-0688             
1 61596U 24188C   25249.18225036  .00000060  00000+0  12166-3 0  9993
2 61596  87.9027  62.4085 0003028  86.8981 273.2497 13.17651390 48495
ONEWEB-0689             
1 61597U 24188D   25249.21419930  .00000546  00000+0  15034-2 0  9991
2 61597  87.8743  77.6377 0001788  98.7734 261.3597 13.11416396 47230
ONEWEB-0690             
1 61598U 24188E   25249.22436907  .00000105  00000+0  25918-3 0  9990
2 61598  87.8790  77.6137 0001493  62.5742 297.5538 13.11415268 47411
ONEWEB-0691             
1 61599U 24188F   25249.21928734  .00000408  00000+0  11164-2 0  9997
2 61599  87.8703  77.5763 0002070  83.9516 276.1848 13.11416784 47262
ONEWEB-0692             
1 61600U 24188G   25249.23964643 -.00000470  00000+0 -13617-2 0  9997
2 61600  87.8768  77.6763 0001107 120.7323 239.3914 13.11416799 47253
ONEWEB-0693             
1 61601U 24188H   25249.19405648  .00000033  00000+0  51053-4 0  9999
2 61601  87.9032  62.4246 0001872  63.3700 296.7623 13.17647377 48481
ONEWEB-0695             
1 61602U 24188J   25249.06328982  .00000472  00000+0  12968-2 0  9998
2 61602  87.8769  77.6983 0001612 107.6972 252.4332 13.11414581 47229
ONEWEB-0697             
1 61603U 24188K   25249.24809827 -.00000421  00000+0 -12246-2 0  9996
2 61603  87.8769  77.6529 0001073 113.1152 247.0089 13.11416992 47237
ONEWEB-0698             
1 61604U 24188L   25249.22606437  .00000109  00000+0  27297-3 0  9991
2 61604  87.8768  77.6713 0000647  66.9685 293.1511 13.11415436 47250
ONEWEB-0699             
1 61605U 24188M   25249.08927073  .00000686  00000+0  19288-2 0  9998
2 61605  87.8753  92.9120 0001088  93.1669 266.9583 13.10374214 46108
ONEWEB-0700             
1 61606U 24188N   25249.09092922  .00000691  00000+0  19440-2 0  9992
2 61606  87.8737  92.7980 0001428 110.9297 249.1984 13.10375112 46090
ONEWEB-0701             
1 61607U 24188P   25249.26023305  .00000492  00000+0  13734-2 0  9990
2 61607  87.8739  92.8834 0000971 108.0337 252.0896 13.10369883 46124
ONEWEB-0702             
1 61608U 24188Q   25249.04295372  .00000349  00000+0  94820-3 0  9999
2 61608  87.8710  77.6405 0001272 122.0648 238.0604 13.11421451 47241
ONEWEB-0704             
1 61609U 24188R   25249.09591041  .00000693  00000+0  19500-2 0  9990
2 61609  87.8767  92.8654 0001304 121.0036 239.1219 13.10372590 46088
