[{"OBJECT_NAME":"ONEWEB-0721","OBJECT_ID":"2023-068R","EPOCH":"2025-09-06T06:20:25.329120","MEAN_MOTION":13.22443799,"ECCENTRICITY":0.00018969,"INCLINATION":86.6874,"RA_OF_ASC_NODE":176.0229,"ARG_OF_PERICENTER":74.6717,"MEAN_ANOMALY":285.4626,"EPHEMERIS_TYPE":0,"CLASSIFICATION_TYPE":"U","NORAD_CAT_ID":56725,"ELEMENT_SET_NO":999,"REV_AT_EPOCH":12041,"BSTAR":5.356783e-5,"MEAN_MOTION_DOT":3.7e-7,"MEAN_MOTION_DDOT":0},{"OBJECT_NAME":"ONEWEB-0015","OBJECT_ID":"2024-188A","EPOCH":"2025-09-06T06:09:28.696896","MEAN_MOTION":13.11418679,"ECCENTRICITY":0.00023206,"INCLINATION":87.878,"RA_OF_ASC_NODE":77.6729,"ARG_OF_PERICENTER":85.7614,"MEAN_ANOMALY":274.3779,"EPHEMERIS_TYPE":0,"CLASSIFICATION_TYPE":"U","NORAD_CAT_ID":61594,"ELEMENT_SET_NO":999,"REV_AT_EPOCH":4724,"BSTAR":-0.00090425482,"MEAN_MOTION_DOT":-3.08e-6,"MEAN_MOTION_DDOT":0},{"OBJECT_NAME":"ONEWEB-0687","OBJECT_ID":"2024-188B","EPOCH":"2025-09-06T05:30:28.809504","MEAN_MOTION":13.1765067,"ECCENTRICITY":0.00022088,"INCLINATION":87.9029,"RA_OF_ASC_NODE":62.3993,"ARG_OF_PERICENTER":102.1469,"MEAN_ANOMALY":257.991,"EPHEMERIS_TYPE":0,"CLASSIFICATION_TYPE":"U","NORAD_CAT_ID":61595,"ELEMENT_SET_NO":999,"REV_AT_EPOCH":4850,"BSTAR":0.00023411517,"MEAN_MOTION_DOT":1.04e-6,"MEAN_MOTION_DDOT":0},{"OBJECT_NAME":"ONEWEB-0688","OBJECT_ID":"2024-188C","EPOCH":"2025-09-06T04:22:26.431104","MEAN_MOTION":13.1765139,"ECCENTRICITY":0.0003028,"INCLINATION":87.9027,"RA_OF_ASC_NODE":62.4085,"ARG_OF_PERICENTER":86.8981,"MEAN_ANOMALY":273.2497,"EPHEMERIS_TYPE":0,"CLASSIFICATION_TYPE":"U","NORAD_CAT_ID":61596,"ELEMENT_SET_NO":999,"REV_AT_EPOCH":4849,"BSTAR":0.00012166128,"MEAN_MOTION_DOT":6.0e-7,"MEAN_MOTION_DDOT":0},{"OBJECT_NAME":"ONEWEB-0689","OBJECT_ID":"2024-188D","EPOCH":"2025-09-06T05:08:26.819520","MEAN_MOTION":13.11416396,"ECCENTRICITY":0.00017881,"INCLINATION":87.8743,"RA_OF_ASC_NODE":77.6377,"ARG_OF_PERICENTER":98.7734,"MEAN_ANOMALY":261.3597,"EPHEMERIS_TYPE":0,"CLASSIFICATION_TYPE":"U","NORAD_CAT_ID":61597,"ELEMENT_SET_NO":999,"REV_AT_EPOCH":4723,"BSTAR":0.0015034287,"MEAN_MOTION_DOT":5.46e-6,"MEAN_MOTION_DDOT":0},{"OBJECT_NAME":"ONEWEB-0690","OBJECT_ID":"2024-188E","EPOCH":"2025-09-06T05:23:05.487648","MEAN_MOTION":13.11415268,"ECCENTRICITY":0.0001493,"INCLINATION":87.879,"RA_OF_ASC_NODE":77.6137,"ARG_OF_PERICENTER":62.5742,"MEAN_ANOMALY":297.5538,"EPHEMERIS_TYPE":0,"CLASSIFICATION_TYPE":"U","NORAD_CAT_ID":61598,"ELEMENT_SET_NO":999,"REV_AT_EPOCH":4741,"BSTAR":0.00025917828,"MEAN_MOTION_DOT":1.05e-6,"MEAN_MOTION_DDOT":0},{"OBJECT_NAME":"ONEWEB-0691","OBJECT_ID":"2024-188F","EPOCH":"2025-09-06T05:15:46.426176","MEAN_MOTION":13.11416784,"ECCENTRICITY":0.00020702,"INCLINATION":87.8703,"RA_OF_ASC_NODE":77.5763,"ARG_OF_PERICENTER":83.9516,"MEAN_ANOMALY":276.1848,"EPHEMERIS_TYPE":0,"CLASSIFICATION_TYPE":"U","NORAD_CAT_ID":61599,"ELEMENT_SET_NO":999,"REV_AT_EPOCH":4726,"BSTAR":0.0011164365,"MEAN_MOTION_DOT":4.08e-6,"MEAN_MOTION_DDOT":0},{"OBJECT_NAME":"ONEWEB-0692","OBJECT_ID":"2024-188G","EPOCH":"2025-09-06T05:45:05.451552","MEAN_MOTION":13.11416799,"ECCENTRICITY":0.00011075,"INCLINATION":87.8768,"RA_OF_ASC_NODE":77.6763,"ARG_OF_PERICENTER":120.7323,"MEAN_ANOMALY":239.3914,"EPHEMERIS_TYPE":0,"CLASSIFICATION_TYPE":"U","NORAD_CAT_ID":61600,"ELEMENT_SET_NO":999,"REV_AT_EPOCH":4725,"BSTAR":-0.0013617022,"MEAN_MOTION_DOT":-4.7e-6,"MEAN_MOTION_DDOT":0},{"OBJECT_NAME":"ONEWEB-0693","OBJECT_ID":"2024-188H","EPOCH":"2025-09-06T04:39:26.479872","MEAN_MOTION":13.17647377,"ECCENTRICITY":0.00018727,"INCLINATION":87.9032,"RA_OF_ASC_NODE":62.4246,"ARG_OF_PERICENTER":63.37,"MEAN_ANOMALY":296.7623,"EPHEMERIS_TYPE":0,"CLASSIFICATION_TYPE":"U","NORAD_CAT_ID":61601,"ELEMENT_SET_NO":999,"REV_AT_EPOCH":4848,"BSTAR":5.1053418e-5,"MEAN_MOTION_DOT":3.3e-7,"MEAN_MOTION_DDOT":0},{"OBJECT_NAME":"ONEWEB-0695","OBJECT_ID":"2024-188J","EPOCH":"2025-09-06T01:31:08.240448","MEAN_MOTION":13.11414581,"ECCENTRICITY":0.0001612,"INCLINATION":87.8769,"RA_OF_ASC_NODE":77.6983,"ARG_OF_PERICENTER":107.6972,"MEAN_ANOMALY":252.4332,"EPHEMERIS_TYPE":0,"CLASSIFICATION_TYPE":"U","NORAD_CAT_ID":61602,"ELEMENT_SET_NO":999,"REV_AT_EPOCH":4722,"BSTAR":0.0012967671,"MEAN_MOTION_DOT":4.72e-6,"MEAN_MOTION_DDOT":0},{"OBJECT_NAME":"ONEWEB-0697","OBJECT_ID":"2024-188K","EPOCH":"2025-09-06T05:57:15.690528","MEAN_MOTION":13.11416992,"ECCENTRICITY":0.00010733,"INCLINATION":87.8769,"RA_OF_ASC_NODE":77.6529,"ARG_OF_PERICENTER":113.1152,"MEAN_ANOMALY":247.0089,"EPHEMERIS_TYPE":0,"CLASSIFICATION_TYPE":"U","NORAD_CAT_ID":61603,"ELEMENT_SET_NO":999,"REV_AT_EPOCH":4723,"BSTAR":-0.0012245948,"MEAN_MOTION_DOT":-4.21e-6,"MEAN_MOTION_DDOT":0},{"OBJECT_NAME":"ONEWEB-0698","OBJECT_ID":"2024-188L","EPOCH":"2025-09-06T05:25:31.961568","MEAN_MOTION":13.11415436,"ECCENTRICITY":6.477e-5,"INCLINATION":87.8768,"RA_OF_ASC_NODE":77.6713,"ARG_OF_PERICENTER":66.9685,"MEAN_ANOMALY":293.1511,"EPHEMERIS_TYPE":0,"CLASSIFICATION_TYPE":"U","NORAD_CAT_ID":61604,"ELEMENT_SET_NO":999,"REV_AT_EPOCH":4725,"BSTAR":0.0002729664,"MEAN_MOTION_DOT":1.09e-6,"MEAN_MOTION_DDOT":0},{"OBJECT_NAME":"ONEWEB-0699","OBJECT_ID":"2024-188M","EPOCH":"2025-09-06T02:08:32.991072","MEAN_MOTION":13.10374214,"ECCENTRICITY":0.0001088,"INCLINATION":87.8753,"RA_OF_ASC_NODE":92.912,"ARG_OF_PERICENTER":93.1669,"MEAN_ANOMALY":266.9583,"EPHEMERIS_TYPE":0,"CLASSIFICATION_TYPE":"U","NORAD_CAT_ID":61605,"ELEMENT_SET_NO":999,"REV_AT_EPOCH":4610,"BSTAR":0.0019287755,"MEAN_MOTION_DOT":6.86e-6,"MEAN_MOTION_DDOT":0},{"OBJECT_NAME":"ONEWEB-0700","OBJECT_ID":"2024-188N","EPOCH":"2025-09-06T02:10:56.284608","MEAN_MOTION":13.10375112,"ECCENTRICITY":0.00014289,"INCLINATION":87.8737,"RA_OF_ASC_NODE":92.798,"ARG_OF_PERICENTER":110.9297,"MEAN_ANOMALY":249.1984,"EPHEMERIS_TYPE":0,"CLASSIFICATION_TYPE":"U","NORAD_CAT_ID":61606,"ELEMENT_SET_NO":999,"REV_AT_EPOCH":4609,"BSTAR":0.0019439983,"MEAN_MOTION_DOT":6.91e-6,"MEAN_MOTION_DDOT":0},{"OBJECT_NAME":"ONEWEB-0701","OBJECT_ID":"2024-188P","EPOCH":"2025-09-06T06:14:44.135520","MEAN_MOTION":13.10369883,"ECCENTRICITY":9.711e-5,"INCLINATION":87.8739,"RA_OF_ASC_NODE":92.8834,"ARG_OF_PERICENTER":108.0337,"MEAN_ANOMALY":252.0896,"EPHEMERIS_TYPE":0,"CLASSIFICATION_TYPE":"U","NORAD_CAT_ID":61607,"ELEMENT_SET_NO":999,"REV_AT_EPOCH":4612,"BSTAR":0.0013733769,"MEAN_MOTION_DOT":4.92e-6,"MEAN_MOTION_DDOT":0},{"OBJECT_NAME":"ONEWEB-0702","OBJECT_ID":"2024-188Q","EPOCH":"2025-09-06T01:01:51.201408","MEAN_MOTION":13.11421451,"ECCENTRICITY":0.00012729,"INCLINATION":87.871,"RA_OF_ASC_NODE":77.6405,"ARG_OF_PERICENTER":122.0648,"MEAN_ANOMALY":238.0604,"EPHEMERIS_TYPE":0,"CLASSIFICATION_TYPE":"U","NORAD_CAT_ID":61608,"ELEMENT_SET_NO":999,"REV_AT_EPOCH":4724,"BSTAR":0.00094819613,"MEAN_MOTION_DOT":3.49e-6,"MEAN_MOTION_DDOT":0},{"OBJECT_NAME":"ONEWEB-0704","OBJECT_ID":"2024-188R","EPOCH":"2025-09-06T02:18:06.659424","MEAN_MOTION":13.1037259,"ECCENTRICITY":0.00013041,"INCLINATION":87.8767,"RA_OF_ASC_NODE":92.8654,"ARG_OF_PERICENTER":121.0036,"MEAN_ANOMALY":239.1219,"EPHEMERIS_TYPE":0,"CLASSIFICATION_TYPE":"U","NORAD_CAT_ID":61609,"ELEMENT_SET_NO":999,"REV_AT_EPOCH":4608,"BSTAR":0.001949977,"MEAN_MOTION_DOT":6.93e-6,"MEAN_MOTION_DDOT":0}]
